CCSDS_OMM_VERS = 2.0
CREATION_DATE  = 
ORIGINATOR     = 

OBJECT_NAME    = SOYUZ-MS 28
OBJECT_ID      = 2025-275A
CENTER_NAME    = EARTH
REF_FRAME      = TEME
TIME_SYSTEM    = UTC
MEAN_ELEMENT_THEORY = SGP/SGP4

EPOCH          = 2025-12-28T09:42:39.147264
MEAN_MOTION    = 15.49904326
ECCENTRICITY   = .0003218
INCLINATION    = 51.6322
RA_OF_ASC_NODE = 64.8948
ARG_OF_PERICENTER = 313.9299
MEAN_ANOMALY   = 46.1423

EPHEMERIS_TYPE = 0
CLASSIFICATION_TYPE = U
NORAD_CAT_ID   = 66664
ELEMENT_SET_NO = 999
REV_AT_EPOCH   = 54528
BSTAR          = .2929E-3
MEAN_MOTION_DOT = .1624E-3
MEAN_MOTION_DDOT = 0

CCSDS_OMM_VERS = 2.0
CREATION_DATE  = 
ORIGINATOR     = 

OBJECT_NAME    = 1998-067XS
OBJECT_ID      = 1998-067XS
CENTER_NAME    = EARTH
REF_FRAME      = TEME
TIME_SYSTEM    = UTC
MEAN_ELEMENT_THEORY = SGP/SGP4

EPOCH          = 2025-12-28T04:38:05.811648
MEAN_MOTION    = 15.51427236
ECCENTRICITY   = .0002613
INCLINATION    = 51.6324
RA_OF_ASC_NODE = 65.7333
ARG_OF_PERICENTER = 281.7047
MEAN_ANOMALY   = 78.3649

EPHEMERIS_TYPE = 0
CLASSIFICATION_TYPE = U
NORAD_CAT_ID   = 66906
ELEMENT_SET_NO = 999
REV_AT_EPOCH   = 401
BSTAR          = .58581E-3
MEAN_MOTION_DOT = .34866E-3
MEAN_MOTION_DDOT = 0

CCSDS_OMM_VERS = 2.0
CREATION_DATE  = 
ORIGINATOR     = 

OBJECT_NAME    = 1998-067XT
OBJECT_ID      = 1998-067XT
CENTER_NAME    = EARTH
REF_FRAME      = TEME
TIME_SYSTEM    = UTC
MEAN_ELEMENT_THEORY = SGP/SGP4

EPOCH          = 2025-12-28T10:24:22.543200
MEAN_MOTION    = 15.53480440
ECCENTRICITY   = .0003865
INCLINATION    = 51.6317
RA_OF_ASC_NODE = 64.3388
ARG_OF_PERICENTER = 323.2594
MEAN_ANOMALY   = 36.8131

EPHEMERIS_TYPE = 0
CLASSIFICATION_TYPE = U
NORAD_CAT_ID   = 66907
ELEMENT_SET_NO = 999
REV_AT_EPOCH   = 405
BSTAR          = .12721E-2
MEAN_MOTION_DOT = .82646E-3
MEAN_MOTION_DDOT = 0

CCSDS_OMM_VERS = 2.0
CREATION_DATE  = 
ORIGINATOR     = 

OBJECT_NAME    = 1998-067XU
OBJECT_ID      = 1998-067XU
CENTER_NAME    = EARTH
REF_FRAME      = TEME
TIME_SYSTEM    = UTC
MEAN_ELEMENT_THEORY = SGP/SGP4

EPOCH          = 2025-12-28T10:22:40.445184
MEAN_MOTION    = 15.53483869
ECCENTRICITY   = .0004029
INCLINATION    = 51.6319
RA_OF_ASC_NODE = 64.3305
ARG_OF_PERICENTER = 319.7026
MEAN_ANOMALY   = 40.3665

EPHEMERIS_TYPE = 0
CLASSIFICATION_TYPE = U
NORAD_CAT_ID   = 66908
ELEMENT_SET_NO = 999
REV_AT_EPOCH   = 405
BSTAR          = .10477E-2
MEAN_MOTION_DOT = .67867E-3
MEAN_MOTION_DDOT = 0

CCSDS_OMM_VERS = 2.0
CREATION_DATE  = 
ORIGINATOR     = 

OBJECT_NAME    = SILVERSAT
OBJECT_ID      = 1998-067XV
CENTER_NAME    = EARTH
REF_FRAME      = TEME
TIME_SYSTEM    = UTC
MEAN_ELEMENT_THEORY = SGP/SGP4

EPOCH          = 2025-12-28T10:19:26.155776
MEAN_MOTION    = 15.53851479
ECCENTRICITY   = .0003948
INCLINATION    = 51.6309
RA_OF_ASC_NODE = 64.3153
ARG_OF_PERICENTER = 326.5530
MEAN_ANOMALY   = 33.5211

EPHEMERIS_TYPE = 0
CLASSIFICATION_TYPE = U
NORAD_CAT_ID   = 66909
ELEMENT_SET_NO = 999
REV_AT_EPOCH   = 405
BSTAR          = .13667E-2
MEAN_MOTION_DOT = .90125E-3
MEAN_MOTION_DDOT = 0

CCSDS_OMM_VERS = 2.0
CREATION_DATE  = 
ORIGINATOR     = 

OBJECT_NAME    = 1998-067XW
OBJECT_ID      = 1998-067XW
CENTER_NAME    = EARTH
REF_FRAME      = TEME
TIME_SYSTEM    = UTC
MEAN_ELEMENT_THEORY = SGP/SGP4

EPOCH          = 2025-12-28T10:17:22.356672
MEAN_MOTION    = 15.53717016
ECCENTRICITY   = .000365
INCLINATION    = 51.6307
RA_OF_ASC_NODE = 64.3052
ARG_OF_PERICENTER = 295.6373
MEAN_ANOMALY   = 64.4240

EPHEMERIS_TYPE = 0
CLASSIFICATION_TYPE = U
NORAD_CAT_ID   = 66910
ELEMENT_SET_NO = 999
REV_AT_EPOCH   = 405
BSTAR          = .1226E-2
MEAN_MOTION_DOT = .80298E-3
MEAN_MOTION_DDOT = 0

CCSDS_OMM_VERS = 2.0
CREATION_DATE  = 
ORIGINATOR     = 

OBJECT_NAME    = 1998-067XX
OBJECT_ID      = 1998-067XX
CENTER_NAME    = EARTH
REF_FRAME      = TEME
TIME_SYSTEM    = UTC
MEAN_ELEMENT_THEORY = SGP/SGP4

EPOCH          = 2025-12-28T08:37:32.267136
MEAN_MOTION    = 15.54336022
ECCENTRICITY   = .000338
INCLINATION    = 51.6310
RA_OF_ASC_NODE = 64.5939
ARG_OF_PERICENTER = 306.9816
MEAN_ANOMALY   = 53.0865

EPHEMERIS_TYPE = 0
CLASSIFICATION_TYPE = U
NORAD_CAT_ID   = 66911
ELEMENT_SET_NO = 999
REV_AT_EPOCH   = 403
BSTAR          = .14928E-2
MEAN_MOTION_DOT = .100367E-2
MEAN_MOTION_DDOT = 0

CCSDS_OMM_VERS = 2.0
CREATION_DATE  = 
ORIGINATOR     = 

OBJECT_NAME    = 1998-067XY
OBJECT_ID      = 1998-067XY
CENTER_NAME    = EARTH
REF_FRAME      = TEME
TIME_SYSTEM    = UTC
MEAN_ELEMENT_THEORY = SGP/SGP4

EPOCH          = 2025-12-28T09:00:38.759904
MEAN_MOTION    = 15.52721713
ECCENTRICITY   = .000384
INCLINATION    = 51.6317
RA_OF_ASC_NODE = 64.7007
ARG_OF_PERICENTER = 312.2121
MEAN_ANOMALY   = 47.8542

EPHEMERIS_TYPE = 0
CLASSIFICATION_TYPE = U
NORAD_CAT_ID   = 66912
ELEMENT_SET_NO = 999
REV_AT_EPOCH   = 403
BSTAR          = .99E-3
MEAN_MOTION_DOT = .62303E-3
MEAN_MOTION_DDOT = 0

