SOYUZ-MS 28             
1 66664U 25275A   25362.40461976  .00016240  00000+0  29290-3 0  9991
2 66664  51.6322  64.8948 0003218 313.9299  46.1423 15.49904326545285
1998-067XS              
1 66906U 98067XS  25362.19312282  .00034866  00000+0  58581-3 0  9999
2 66906  51.6324  65.7333 0002613 281.7047  78.3649 15.51427236  4016
1998-067XT              
1 66907U 98067XT  25362.43359425  .00082646  00000+0  12721-2 0  9991
2 66907  51.6317  64.3388 0003865 323.2594  36.8131 15.53480440  4050
1998-067XU              
1 66908U 98067XU  25362.43241256  .00067867  00000+0  10477-2 0  9998
2 66908  51.6319  64.3305 0004029 319.7026  40.3665 15.53483869  4055
SILVERSAT               
1 66909U 98067XV  25362.43016384  .00090125  00000+0  13667-2 0  9998
2 66909  51.6309  64.3153 0003948 326.5530  33.5211 15.53851479  4058
1998-067XW              
1 66910U 98067XW  25362.42873098  .00080298  00000+0  12260-2 0  9990
2 66910  51.6307  64.3052 0003650 295.6373  64.4240 15.53717016  4050
1998-067XX              
1 66911U 98067XX  25362.35940124  .00100367  00000+0  14928-2 0  9991
2 66911  51.6310  64.5939 0003380 306.9816  53.0865 15.54336022  4039
1998-067XY              
1 66912U 98067XY  25362.37544861  .00062303  00000+0  99000-3 0  9994
2 66912  51.6317  64.7007 0003840 312.2121  47.8542 15.52721713  4031
